ONEWEB-0229             
1 48779U 21045N   24163.58737835  .00000146  00000+0  35490-3 0  9993
2 48779  87.9042  45.5886 0002000  84.8300 275.3058 13.15548880147698
ONEWEB-0228             
1 48780U 21045P   24163.60243042 -.00000622  00000+0 -16876-2 0  9997
2 48780  87.9037  45.5610 0001998  81.0279 279.1078 13.15551141147618
ONEWEB-0232             
1 48781U 21045Q   24163.59530526  .00000103  00000+0  24050-3 0  9998
2 48781  87.9036  45.5843 0001986  82.3123 277.8232 13.15548262147937
ONEWEB-0231             
1 48782U 21045R   24163.42101356  .00000119  00000+0  28175-3 0  9995
2 48782  87.9049  45.6478 0002169  82.5663 277.5714 13.15548870147603
ONEWEB-0234             
1 48783U 21045S   24163.59293122  .00000153  00000+0  37290-3 0  9993
2 48783  87.9043  45.5732 0001491  35.0516 325.0712 13.15548548147763
ONEWEB-0238             
1 48784U 21045T   24163.39486351 -.00000098  00000+0 -29309-3 0  9992
2 48784  87.9041  45.6306 0001757  77.5872 282.5454 13.15547825147634
ONEWEB-0240             
1 48785U 21045U   24163.40437355  .00000022  00000+0  24882-4 0  9992
2 48785  87.9041  45.5959 0002232  75.2617 284.8761 13.15547977147666
ONEWEB-0246             
1 48786U 21045V   24163.39882831 -.00000060  00000+0 -19224-3 0  9991
2 48786  87.9044  45.6016 0002002  85.3407 274.7952 13.15547855147530
